{
    "links": {
        "self": "http://www.neowsapp.com/rest/v1/neo/3370281?api_key=iIulBulltgU6a56xZRHN4H3l9WmuAYTsLGpBGhQ2"
    },
    "id": "3370281",
    "neo_reference_id": "3370281",
    "name": "(2007 EN)",
    "designation": "2007 EN",
    "nasa_jpl_url": "http://ssd.jpl.nasa.gov/sbdb.cgi?sstr=3370281",
    "absolute_magnitude_h": 21.2,
    "estimated_diameter": {
        "kilometers": {
            "estimated_diameter_min": 0.1529519353,
            "estimated_diameter_max": 0.3420109247
        },
        "meters": {
            "estimated_diameter_min": 152.9519353442,
            "estimated_diameter_max": 342.0109247198
        },
        "miles": {
            "estimated_diameter_min": 0.095039897,
            "estimated_diameter_max": 0.2125156703
        },
        "feet": {
            "estimated_diameter_min": 501.8108275547,
            "estimated_diameter_max": 1122.0831222578
        }
    },
    "is_potentially_hazardous_asteroid": false,
    "close_approach_data": [
        {
            "close_approach_date": "2007-07-16",
            "close_approach_date_full": "2007-Jul-16 09:15",
            "epoch_date_close_approach": 1184577300000,
            "relative_velocity": {
                "kilometers_per_second": "17.9478405711",
                "kilometers_per_hour": "64612.2260560705",
                "miles_per_hour": "40147.5245735623"
            },
            "miss_distance": {
                "astronomical": "0.4828255375",
                "lunar": "187.8191340875",
                "kilometers": "72229671.991605125",
                "miles": "44881436.995695725"
            },
            "orbiting_body": "Earth"
        }
    ],
    "orbital_data": {
        "orbit_id": "8",
        "orbit_determination_date": "2017-04-06 09:06:51",
        "first_observation_date": "2007-03-09",
        "last_observation_date": "2007-03-15",
        "data_arc_in_days": 6,
        "observations_used": 25,
        "orbit_uncertainty": "8",
        "minimum_orbit_intersection": ".306803",
        "jupiter_tisserand_invariant": "3.039",
        "epoch_osculation": "2454171.5",
        "eccentricity": ".5905576131909336",
        "semi_major_axis": "2.605851528793761",
        "inclination": "24.17937255772655",
        "ascending_node_longitude": "338.9040417215061",
        "orbital_period": "1536.465908267407",
        "perihelion_distance": "1.066946069619372",
        "perihelion_argument": "256.3670317610695",
        "aphelion_distance": "4.144756987968149",
        "perihelion_time": "2454255.660645896155",
        "mean_anomaly": "340.2808299490478",
        "mean_motion": ".2343039295977308",
        "equinox": "J2000",
        "orbit_class": {
            "orbit_class_type": "AMO",
            "orbit_class_description": "Near-Earth asteroid orbits similar to that of 1221 Amor",
            "orbit_class_range": "1.017 AU < q (perihelion) < 1.3 AU"
        }
    },
    "is_sentry_object": false
}